[{"OBJECT_NAME":"STARLINK-35822","OBJECT_ID":"2025-254Q","EPOCH":"2026-03-09T18:20:51.906624","MEAN_MOTION":15.30194591,"ECCENTRICITY":0.00010385,"INCLINATION":53.1587,"RA_OF_ASC_NODE":232.3529,"ARG_OF_PERICENTER":86.406,"MEAN_ANOMALY":273.706,"EPHEMERIS_TYPE":0,"CLASSIFICATION_TYPE":"U","NORAD_CAT_ID":66362,"ELEMENT_SET_NO":999,"REV_AT_EPOCH":1898,"BSTAR":0.0009975087,"MEAN_MOTION_DOT":0.00029296,"MEAN_MOTION_DDOT":0},{"OBJECT_NAME":"OBJECT P","OBJECT_ID":"2018-099P","EPOCH":"2026-03-09T16:35:55.790016","MEAN_MOTION":15.30834106,"ECCENTRICITY":0.00076856,"INCLINATION":97.4366,"RA_OF_ASC_NODE":131.9195,"ARG_OF_PERICENTER":276.7627,"MEAN_ANOMALY":83.2739,"EPHEMERIS_TYPE":0,"CLASSIFICATION_TYPE":"U","NORAD_CAT_ID":43771,"ELEMENT_SET_NO":999,"REV_AT_EPOCH":39830,"BSTAR":0.00063632878,"MEAN_MOTION_DOT":0.00018926,"MEAN_MOTION_DDOT":0}]
